start=new Date('2022-12-23T00:00:00.000Z').valueOf();
sats=[{"LAUNCH_DATE":"2021-02-16","REV_AT_EPOCH":"10292","SEMIMAJOR_AXIS":"6925.328","FILE":"3719314","NORAD_CAT_ID":"47636","MEAN_MOTION_DOT":"-0.00000021","APOAPSIS":"548.142","ARG_OF_PERICENTER":"75.6905","COUNTRY_CODE":"US","ECCENTRICITY":"0.00013700","MEAN_MOTION_DDOT":"0.0000000000000","TLE_LINE1":"1 47636U 21012S   22356.51054660 -.00000021  00000-0  17506-4 0  9994","DECAY_DATE":null,"GP_ID":"221205733","MEAN_MOTION":"15.06406644","MEAN_ELEMENT_THEORY":"SGP4","INCLINATION":"53.0547","RA_OF_ASC_NODE":"278.2395","PERIAPSIS":"546.244","CENTER_NAME":"EARTH","RCS_SIZE":"LARGE","EPHEMERIS_TYPE":"0","OBJECT_ID":"2021-012S","ELEMENT_SET_NO":"999","REF_FRAME":"TEME","BSTAR":"0.00001750600000","EPOCH":"2022-12-22T12:15:11.226240","CLASSIFICATION_TYPE":"U","OBJECT_NAME":"STARLINK-2013","TIME_SYSTEM":"UTC","MEAN_ANOMALY":"284.4236","TLE_LINE2":"2 47636  53.0547 278.2395 0001370  75.6905 284.4236 15.06406644102920","PERIOD":"95.592","OBJECT_TYPE":"PAYLOAD","SITE":"AFETR"},{"RCS_SIZE":"LARGE","PERIAPSIS":"546.228","CENTER_NAME":"EARTH","RA_OF_ASC_NODE":"276.8742","EPHEMERIS_TYPE":"0","MEAN_MOTION_DDOT":"0.0000000000000","INCLINATION":"53.0539","DECAY_DATE":null,"GP_ID":"221235493","MEAN_ELEMENT_THEORY":"SGP4","MEAN_MOTION":"15.06386079","TLE_LINE1":"1 47637U 21012T   22356.81281284  .00000516  00000-0  53561-4 0  9991","ARG_OF_PERICENTER":"92.3092","APOAPSIS":"548.284","ECCENTRICITY":"0.00014840","COUNTRY_CODE":"US","MEAN_MOTION_DOT":"0.00000516","NORAD_CAT_ID":"47637","SEMIMAJOR_AXIS":"6925.391","FILE":"3719655","REV_AT_EPOCH":"10349","LAUNCH_DATE":"2021-02-16","OBJECT_TYPE":"PAYLOAD","SITE":"AFETR","PERIOD":"95.593","TLE_LINE2":"2 47637  53.0539 276.8742 0001484  92.3092 267.8067 15.06386079103490","EPOCH":"2022-12-22T19:30:27.029376","MEAN_ANOMALY":"267.8067","OBJECT_NAME":"STARLINK-2014","CLASSIFICATION_TYPE":"U","TIME_SYSTEM":"UTC","ELEMENT_SET_NO":"999","REF_FRAME":"TEME","OBJECT_ID":"2021-012T","BSTAR":"0.00005356100000"},{"EPOCH":"2022-12-22T19:27:07.564608","TIME_SYSTEM":"UTC","CLASSIFICATION_TYPE":"U","OBJECT_NAME":"STARLINK-2015","MEAN_ANOMALY":"276.4326","OBJECT_ID":"2021-012U","ELEMENT_SET_NO":"999","REF_FRAME":"TEME","BSTAR":"0.00005522100000","OBJECT_TYPE":"PAYLOAD","SITE":"AFETR","TLE_LINE2":"2 47638  53.0539 201.8693 0001381  83.6820 276.4326 15.06390643104512","PERIOD":"95.593","APOAPSIS":"548.199","ARG_OF_PERICENTER":"83.6820","COUNTRY_CODE":"US","ECCENTRICITY":"0.00013810","LAUNCH_DATE":"2021-02-16","REV_AT_EPOCH":"10451","FILE":"3719655","SEMIMAJOR_AXIS":"6925.377","NORAD_CAT_ID":"47638","MEAN_MOTION_DOT":"0.00000541","RA_OF_ASC_NODE":"201.8693","PERIAPSIS":"546.286","CENTER_NAME":"EARTH","RCS_SIZE":"LARGE","EPHEMERIS_TYPE":"0","MEAN_MOTION_DDOT":"0.0000000000000","TLE_LINE1":"1 47638U 21012U   22356.81050422  .00000541  00000-0  55221-4 0  9993","GP_ID":"221235744","DECAY_DATE":null,"MEAN_ELEMENT_THEORY":"SGP4","MEAN_MOTION":"15.06390643","INCLINATION":"53.0539"},{"COUNTRY_CODE":"US","ECCENTRICITY":"0.00019040","APOAPSIS":"548.562","ARG_OF_PERICENTER":"84.5812","LAUNCH_DATE":"2021-02-16","REV_AT_EPOCH":"10292","SEMIMAJOR_AXIS":"6925.379","FILE":"3719314","NORAD_CAT_ID":"47639","MEAN_MOTION_DOT":"0.00009195","EPHEMERIS_TYPE":"0","RA_OF_ASC_NODE":"278.1717","PERIAPSIS":"545.925","CENTER_NAME":"EARTH","RCS_SIZE":"LARGE","TLE_LINE1":"1 47639U 21012V   22356.52530356  .00009195  00000-0  63557-3 0  9995","GP_ID":"221205723","DECAY_DATE":null,"MEAN_MOTION":"15.06390228","MEAN_ELEMENT_THEORY":"SGP4","INCLINATION":"53.0540","MEAN_MOTION_DDOT":"0.0000000000000","TIME_SYSTEM":"UTC","CLASSIFICATION_TYPE":"U","OBJECT_NAME":"STARLINK-2016","MEAN_ANOMALY":"275.5395","EPOCH":"2022-12-22T12:36:26.227584","BSTAR":"0.00063557000000","OBJECT_ID":"2021-012V","ELEMENT_SET_NO":"999","REF_FRAME":"TEME","SITE":"AFETR","OBJECT_TYPE":"PAYLOAD","TLE_LINE2":"2 47639  53.0540 278.1717 0001904  84.5812 275.5395 15.06390228102929","PERIOD":"95.593"},{"ECCENTRICITY":"0.00014790","COUNTRY_CODE":"US","ARG_OF_PERICENTER":"86.2853","APOAPSIS":"548.213","MEAN_MOTION_DOT":"0.00014008","NORAD_CAT_ID":"47640","FILE":"3719314","SEMIMAJOR_AXIS":"6925.324","REV_AT_EPOCH":"10258","LAUNCH_DATE":"2021-02-16","EPHEMERIS_TYPE":"0","RCS_SIZE":"LARGE","CENTER_NAME":"EARTH","PERIAPSIS":"546.164","RA_OF_ASC_NODE":"299.9750","INCLINATION":"53.0540","MEAN_ELEMENT_THEORY":"SGP4","GP_ID":"221205300","DECAY_DATE":null,"MEAN_MOTION":"15.06408094","TLE_LINE1":"1 47640U 21012W   22356.12170163  .00014008  00000-0  95719-3 0  9993","MEAN_MOTION_DDOT":"0.0000000000000","MEAN_ANOMALY":"273.8305","OBJECT_NAME":"STARLINK-2018","CLASSIFICATION_TYPE":"U","TIME_SYSTEM":"UTC","EPOCH":"2022-12-22T02:55:15.020832","BSTAR":"0.00095719000000","REF_FRAME":"TEME","ELEMENT_SET_NO":"999","OBJECT_ID":"2021-012W","SITE":"AFETR","OBJECT_TYPE":"PAYLOAD","PERIOD":"95.592","TLE_LINE2":"2 47640  53.0540 299.9750 0001479  86.2853 273.8305 15.06408094102585"},{"MEAN_MOTION_DDOT":"0.0000000000000","TLE_LINE1":"1 47641U 21012X   22356.66306327  .00003994  00000-0  28683-3 0  9994","INCLINATION":"53.0517","GP_ID":"221234994","MEAN_ELEMENT_THEORY":"SGP4","DECAY_DATE":null,"MEAN_MOTION":"15.06401439","RA_OF_ASC_NODE":"202.5396","RCS_SIZE":"LARGE","CENTER_NAME":"EARTH","PERIAPSIS":"546.191","EPHEMERIS_TYPE":"0","REV_AT_EPOCH":"10449","LAUNCH_DATE":"2021-02-16","MEAN_MOTION_DOT":"0.00003994","NORAD_CAT_ID":"47641","FILE":"3719655","SEMIMAJOR_AXIS":"6925.344","ARG_OF_PERICENTER":"80.0124","APOAPSIS":"548.227","COUNTRY_CODE":"US","ECCENTRICITY":"0.00014700","TLE_LINE2":"2 47641  53.0517 202.5396 0001470  80.0124 280.1031 15.06401439104495","PERIOD":"95.592","OBJECT_TYPE":"PAYLOAD","SITE":"AFETR","OBJECT_ID":"2021-012X","ELEMENT_SET_NO":"999","REF_FRAME":"TEME","BSTAR":"0.00028683000000","EPOCH":"2022-12-22T15:54:48.666528","CLASSIFICATION_TYPE":"U","OBJECT_NAME":"STARLINK-2019","TIME_SYSTEM":"UTC","MEAN_ANOMALY":"280.1031"},{"EPHEMERIS_TYPE":"0","RCS_SIZE":"LARGE","PERIAPSIS":"546.272","CENTER_NAME":"EARTH","RA_OF_ASC_NODE":"293.1468","INCLINATION":"53.0557","MEAN_MOTION":"15.06396705","GP_ID":"221205312","DECAY_DATE":null,"MEAN_ELEMENT_THEORY":"SGP4","TLE_LINE1":"1 47642U 21012Y   22356.52575952  .00015674  00000-0  10689-2 0  9996","MEAN_MOTION_DDOT":"0.0000000000000","ECCENTRICITY":"0.00013740","COUNTRY_CODE":"US","ARG_OF_PERICENTER":"96.6448","APOAPSIS":"548.175","NORAD_CAT_ID":"47642","MEAN_MOTION_DOT":"0.00015674","FILE":"3719320","SEMIMAJOR_AXIS":"6925.359","REV_AT_EPOCH":"10271","LAUNCH_DATE":"2021-02-16","SITE":"AFETR","OBJECT_TYPE":"PAYLOAD","PERIOD":"95.592","TLE_LINE2":"2 47642  53.0557 293.1468 0001374  96.6448 263.4697 15.06396705102715","MEAN_ANOMALY":"263.4697","CLASSIFICATION_TYPE":"U","TIME_SYSTEM":"UTC","OBJECT_NAME":"STARLINK-2020","EPOCH":"2022-12-22T12:37:05.622528","BSTAR":"0.00106890000000","REF_FRAME":"TEME","ELEMENT_SET_NO":"999","OBJECT_ID":"2021-012Y"},{"SITE":"AFETR","OBJECT_TYPE":"PAYLOAD","TLE_LINE2":"2 47643  53.0548 280.1794 0001269 113.0555 247.0568 15.06403507103377","PERIOD":"95.592","OBJECT_NAME":"STARLINK-2022","CLASSIFICATION_TYPE":"U","TIME_SYSTEM":"UTC","MEAN_ANOMALY":"247.0568","EPOCH":"2022-12-22T01:48:52.398144","BSTAR":"0.00000835330000","OBJECT_ID":"2021-012Z","ELEMENT_SET_NO":"999","REF_FRAME":"TEME","EPHEMERIS_TYPE":"0","RA_OF_ASC_NODE":"280.1794","CENTER_NAME":"EARTH","PERIAPSIS":"546.324","RCS_SIZE":"LARGE","TLE_LINE1":"1 47643U 21012Z   22356.07560646 -.00000157  00000-0  83533-5 0  9993","MEAN_ELEMENT_THEORY":"SGP4","GP_ID":"221199112","DECAY_DATE":null,"MEAN_MOTION":"15.06403507","INCLINATION":"53.0548","MEAN_MOTION_DDOT":"0.0000000000000","COUNTRY_CODE":"US","ECCENTRICITY":"0.00012690","APOAPSIS":"548.082","ARG_OF_PERICENTER":"113.0555","LAUNCH_DATE":"2021-02-16","REV_AT_EPOCH":"10337","SEMIMAJOR_AXIS":"6925.338","FILE":"3719197","NORAD_CAT_ID":"47643","MEAN_MOTION_DOT":"-0.00000157"},{"ELEMENT_SET_NO":"999","REF_FRAME":"TEME","OBJECT_ID":"2021-012AA","BSTAR":"0.00025419000000","EPOCH":"2022-12-22T19:38:23.656704","MEAN_ANOMALY":"312.2009","CLASSIFICATION_TYPE":"U","TIME_SYSTEM":"UTC","OBJECT_NAME":"STARLINK-2026","PERIOD":"95.593","TLE_LINE2":"2 47644  53.0544 296.8485 0001951  47.9146 312.2009 15.06391650103217","OBJECT_TYPE":"PAYLOAD","SITE":"AFETR","SEMIMAJOR_AXIS":"6925.374","FILE":"3719655","MEAN_MOTION_DOT":"0.00003506","NORAD_CAT_ID":"47644","LAUNCH_DATE":"2021-02-16","REV_AT_EPOCH":"10321","APOAPSIS":"548.590","ARG_OF_PERICENTER":"47.9146","ECCENTRICITY":"0.00019510","COUNTRY_CODE":"US","MEAN_MOTION_DDOT":"0.0000000000000","GP_ID":"221234243","DECAY_DATE":null,"MEAN_ELEMENT_THEORY":"SGP4","MEAN_MOTION":"15.06391650","INCLINATION":"53.0544","TLE_LINE1":"1 47644U 21012AA  22356.81832936  .00003506  00000-0  25419-3 0  9997","PERIAPSIS":"545.888","CENTER_NAME":"EARTH","RCS_SIZE":"LARGE","RA_OF_ASC_NODE":"296.8485","EPHEMERIS_TYPE":"0"},{"APOAPSIS":"548.263","ARG_OF_PERICENTER":"70.8734","COUNTRY_CODE":"US","ECCENTRICITY":"0.00014960","LAUNCH_DATE":"2021-02-16","REV_AT_EPOCH":"10360","SEMIMAJOR_AXIS":"6925.362","FILE":"3719655","NORAD_CAT_ID":"47645","MEAN_MOTION_DOT":"-0.00000110","RA_OF_ASC_NODE":"267.0020","CENTER_NAME":"EARTH","PERIAPSIS":"546.191","RCS_SIZE":"LARGE","EPHEMERIS_TYPE":"0","MEAN_MOTION_DDOT":"0.0000000000000","TLE_LINE1":"1 47645U 21012AB  22356.83955484 -.00000110  00000-0  11516-4 0  9997","GP_ID":"221235494","DECAY_DATE":null,"MEAN_MOTION":"15.06395756","MEAN_ELEMENT_THEORY":"SGP4","INCLINATION":"53.0545","EPOCH":"2022-12-22T20:08:57.538176","OBJECT_NAME":"STARLINK-2027","CLASSIFICATION_TYPE":"U","TIME_SYSTEM":"UTC","MEAN_ANOMALY":"289.2417","OBJECT_ID":"2021-012AB","ELEMENT_SET_NO":"999","REF_FRAME":"TEME","BSTAR":"0.00001151600000","OBJECT_TYPE":"PAYLOAD","SITE":"AFETR","TLE_LINE2":"2 47645  53.0545 267.0020 0001496  70.8734 289.2417 15.06395756103606","PERIOD":"95.592"}];
